STARLINK-5079           
1 53999C 22125AM  26112.81020833 -.00015129  00000+0 -94849-3 0  1127
2 53999  53.2175  15.9722 0001440  96.2253 290.7486 15.08854300    13
STARLINK-5088           
1 54000C 22125AN  26112.75951389 -.00004470  00000+0 -28029-3 0  1127
2 54000  53.2166   6.4718 0001513  97.1263 249.1519 15.08841627    12
STARLINK-5109           
1 54002C 22125AQ  26112.76506944 -.00005582  00000+0 -35001-3 0  1126
2 54002  53.2178   5.9942 0001753  91.1402 165.6346 15.08843628    18
STARLINK-5114           
1 54003C 22125AR  26112.79215278 -.00005422  00000+0 -33998-3 0  1123
2 54003  53.2168  15.9369 0001482  91.3059 257.6049 15.08843740    18
STARLINK-5129           
1 54004C 22125AS  26112.77756944 -.00000661  00000+0 -41456-4 0  1121
2 54004  53.2161  15.8832 0001328  89.3185 240.4005 15.08832054    10
STARLINK-5135           
1 54005C 22125AT  26112.77062500  .00001803  00000+0  11306-3 0  1127
2 54005  53.2162  15.9522 0002055  91.6227 180.3638 15.08840094    17
STARLINK-5096           
1 54006C 22125AU  26112.75604167  .00005977  00000+0  37469-3 0  1121
2 54006  53.2169  15.8719 0001634 101.8164 170.9814 15.08847336    15
STARLINK-5132           
1 54007C 22125AV  26112.73034722  .00019047  00000+0  11945-2 0  1127
2 54007  53.2161  16.0575 0001750 105.3359 347.8017 15.08826379    19
STARLINK-5145           
1 54008C 22125AW  26112.79006944 -.00019067  00000+0 -11956-2 0  1125
2 54008  53.2171   5.7878 0001505  95.2139 337.4842 15.08850433    12
STARLINK-5099           
1 54009C 22125AX  26112.74215278  .00014422  00000+0  90395-3 0  1126
2 54009  53.2164  15.9657 0002167  99.9989  77.2090 15.08848055    13
STARLINK-5127           
1 54010C 22125AY  26112.77479167 -.00013417  00000+0 -84131-3 0  1126
2 54010  53.2168   5.7872 0001646  96.4727 293.2599 15.08846950    14
STARLINK-5124           
1 54011C 22125AZ  26112.74840278 -.00000521  00000+0 -32679-4 0  1122
2 54011  53.2161   6.4828 0001542  94.3222 211.5985 15.08841365    16
STARLINK-5126           
1 54012C 22125BA  26112.81715278 -.00025412  00000+0 -15935-2 0  1122
2 54012  53.2176   5.9007 0001450  91.2452   8.4909 15.08852281    13
STARLINK-5098           
1 54013C 22125BB  26112.78034722 -.00013576  00000+0 -85129-3 0  1128
2 54013  53.2174   6.1457 0001440  98.8810 120.7759 15.08846947    17
STARLINK-5055           
1 54015C 22125BD  26112.75256944 -.00001772  00000+0 -11111-3 0  1124
2 54015  53.2175   6.2272 0001317  92.9745 355.7438 15.08843878    15
STARLINK-5195           
1 54051C 22136A   26112.77270833 -.00034064  00000+0 -21364-2 0  1121
2 54051  53.2145 146.4718 0001149  79.6378 348.3243 15.08849912    18
STARLINK-5189           
1 54052C 22136B   26112.80673611  .00032995  00000+0  20694-2 0  1121
2 54052  53.2151 105.8817 0001274  76.3821  76.8131 15.08816823    15
STARLINK-5176           
1 54053C 22136C   26112.77062500 -.00034328  00000+0 -21526-2 0  1126
2 54053  53.2145 146.4414 0001203  77.5235 359.1253 15.08857110    13
STARLINK-5163           
1 54054C 22136D   26112.72756944 -.00036811  00000+0 -23084-2 0  1124
2 54054  53.2142 146.5552 0001433  64.8855 177.8272 15.08855161    17
STARLINK-5158           
1 54055C 22136E   26112.79770833 -.00028854  00000+0 -18097-2 0  1121
2 54055  53.2142 146.2790 0000987  64.3824 179.5005 15.08846906    13
STARLINK-5226           
1 54056C 22136F   26112.78173611 -.00031316  00000+0 -19639-2 0  1122
2 54056  53.2148 145.7713 0001172  76.7423  20.7147 15.08850943    18
STARLINK-5167           
1 54058C 22136H   26112.79076389 -.00031748  00000+0 -19911-2 0  1121
2 54058  53.2143 146.1504 0001062  79.8709 206.3703 15.08849010    10
STARLINK-5173           
1 54059C 22136J   26112.76437500 -.00034914  00000+0 -21902-2 0  1126
2 54059  53.2143 146.3116 0001401  85.0663  37.6449 15.08842426    13
STARLINK-5169           
1 54060C 22136K   26112.75673611 -.00007075  00000+0 -44376-3 0  1121
2 54060  53.2156 115.9534 0001342  62.8259 243.7223 15.08834496    11
STARLINK-5209           
1 54061C 22136L   26112.77895833  .00015196  00000+0  95312-3 0  1123
2 54061  53.2150 110.8064 0001175  77.1977 357.6675 15.08823515    14
STARLINK-5170           
1 54062C 22136M   26112.77409722 -.00034941  00000+0 -21919-2 0  1124
2 54062  53.2144 146.1861 0000960  76.7808 138.8392 15.08842674    16
STARLINK-5172           
1 54064C 22136P   26112.80395833  .00040535  00000+0  25422-2 0  1124
2 54064  53.2144 101.2634 0001250  84.7846 220.5640 15.08812538    13
STARLINK-5187           
1 54065C 22136Q   26112.73104167 -.00037817  00000+0 -23716-2 0  1120
2 54065  53.2147 146.2641 0001059  73.4140 328.3503 15.08854399    19
STARLINK-5151           
1 54066C 22136R   26112.74840278 -.00033310  00000+0 -20893-2 0  1129
2 54066  53.2145 146.2300 0001220  84.3175  31.7704 15.08846471    19
STARLINK-5174           
1 54067C 22136S   26112.80534722 -.00023590  00000+0 -14796-2 0  1125
2 54067  53.2152 145.8521 0001140  69.1526  56.5062 15.08843249    12
STARLINK-5222           
1 54068C 22136T   26112.79076389 -.00030760  00000+0 -19293-2 0  1128
2 54068  53.2149 145.9548 0001140  73.1717 313.2163 15.08847219    12
STARLINK-5181           
1 54070C 22136V   26112.81645833 -.00019803  00000+0 -12420-2 0  1120
2 54070  53.2151 145.7228 0001210  82.0783 144.0185 15.08842480    10
STARLINK-5168           
1 54071C 22136W   26112.75881944 -.00038884  00000+0 -24388-2 0  1125
2 54071  53.2149 145.9428 0000771  75.0443 217.8279 15.08851679    11
STARLINK-5146           
1 54073C 22136Y   26112.74006944 -.00037142  00000+0 -23290-2 0  1122
2 54073  53.2150 141.0314 0001068  76.9327 121.5217 15.08858239    19
STARLINK-5192           
1 54074C 22136Z   26112.73381944 -.00037984  00000+0 -23822-2 0  1123
2 54074  53.2146 146.0154 0001291  66.6824 110.3398 15.08853338    19
STARLINK-5212           
1 54075C 22136AA  26112.72340278 -.00035405  00000+0 -22205-2 0  1128
2 54075  53.2151 141.0637 0001236  71.4873  56.4212 15.08851380    14
STARLINK-5201           
1 54076C 22136AB  26112.81020833 -.00023962  00000+0 -15029-2 0  1122
2 54076  53.2145 146.2580 0001119  76.4544 210.0920 15.08842183    17
STARLINK-5171           
1 54077C 22136AC  26112.74770833 -.00020563  00000+0 -12896-2 0  1120
2 54077  53.2156 121.9724 0001296  74.2779 109.8659 15.08845114    13
STARLINK-5175           
1 54079C 22136AE  26112.81715278 -.00004997  00000+0 -31341-3 0  1122
2 54079  53.2149 136.2490 0001123  74.2223 250.3163 15.08833983    12
STARLINK-5160           
1 54080C 22136AF  26112.76854167  .00426460  00000+0  13874-1 0  1129
2 54080  53.2165 140.3265 0001931  82.9716 209.6106 15.31118364    17
STARLINK-5210           
1 54082C 22136AH  26112.73868056 -.00038482  00000+0 -24133-2 0  1126
2 54082  53.2152 136.5622 0001130  68.4738 209.5973 15.08855170    11
STARLINK-5178           
1 54083C 22136AJ  26112.80118056 -.00014008  00000+0 -87870-3 0  1129
2 54083  53.2151 136.1644 0001067  80.7549 236.9593 15.08833797    10
STARLINK-5183           
1 54084C 22136AK  26112.81298611 -.00007193  00000+0 -45112-3 0  1127
2 54084  53.2152 136.1889 0000989  52.6580 289.2820 15.08837220    17
STARLINK-5166           
1 54085C 22136AL  26112.73868056 -.00037154  00000+0 -23298-2 0  1125
2 54085  53.2149 136.4132 0001466  77.1468 275.7953 15.08858063    11
STARLINK-5211           
1 54086C 22136AM  26112.78312500  .00000720  00000+0  45163-4 0  1123
2 54086  53.2144 121.2782 0001298  74.2523 147.9050 15.08835802    17
STARLINK-5184           
1 54087C 22136AN  26112.80604167 -.00009911  00000+0 -62164-3 0  1122
2 54087  53.2148 135.7156 0001066  80.6397 123.8946 15.08835546    12
STARLINK-5153           
1 54088C 22136AP  26112.79215278 -.00019127  00000+0 -11997-2 0  1129
2 54088  53.2152 136.2428 0000776  78.3799 170.3536 15.08841573    12
STARLINK-5143           
1 54089C 22136AQ  26112.76090278 -.00030415  00000+0 -19051-2 0  1120
2 54089  53.2139 136.1520 0001166  69.4588 129.5218 15.08894001    18
STARLINK-5177           
1 54090C 22136AR  26112.77270833 -.00027446  00000+0 -17213-2 0  1128
2 54090  53.2146 136.1334 0001160  75.9720 167.1658 15.08847155    19
STARLINK-5221           
1 54091C 22136AS  26112.81715278 -.00003667  00000+0 -23001-3 0  1123
2 54091  53.2147 135.6213 0001374  71.4454 213.5037 15.08833423    13
STARLINK-5190           
1 54092C 22136AT  26112.78451389  .00024505  00000+0  17082-3 0  1124
2 54092  53.1758 316.6820 0002289 129.3420  42.7405 15.73646370    14
STARLINK-5213           
1 54093C 22136AU  26112.75187500 -.00033449  00000+0 -20978-2 0  1129
2 54093  53.2143 136.0669 0001029  77.5460 132.4916 15.08850451    17
STARLINK-5193           
1 54095C 22136AW  26112.75743056 -.00033233  00000+0 -20839-2 0  1122
2 54095  53.2144 135.9643 0000982  81.9791 198.2229 15.08857172    17
STARLINK-5188           
1 54096C 22136AX  26112.77687500 -.00025847  00000+0 -16209-2 0  1124
2 54096  53.2144 135.9939 0001074  79.4322 246.4612 15.08848760    16
STARLINK-5197           
1 54097C 22136AY  26112.74770833 -.00001786  00000+0 -11202-3 0  1129
2 54097  53.2151 111.2635 0001119 104.0043  20.8692 15.08822237    13
STARLINK-5217           
1 54098C 22136AZ  26112.79076389 -.00033489  00000+0 -21043-2 0  1128
2 54098  53.2148 136.4792 0001539  93.8192  22.0957 15.08780582    13
STARLINK-5198           
1 54099C 22136BA  26112.80326389 -.00011536  00000+0 -72346-3 0  1121
2 54099  53.2149 135.6418 0001275  82.2252 147.1505 15.08841728    15
STARLINK-5185           
1 54100C 22136BB  26112.76576389 -.00030475  00000+0 -19112-2 0  1120
2 54100  53.2143 135.9660 0001110  75.6911 229.8746 15.08850458    15
STARLINK-5204           
1 54101C 22136BC  26112.76159722 -.00012785  00000+0 -80172-3 0  1128
2 54101  53.2157 121.0359 0001240  89.3217 190.7499 15.08844777    15
